OBJECT_NAME,OBJECT_ID,EPOCH,MEAN_MOTION,ECCENTRICITY,INCLINATION,RA_OF_ASC_NODE,ARG_OF_PERICENTER,MEAN_ANOMALY,EPHEMERIS_TYPE,CLASSIFICATION_TYPE,NORAD_CAT_ID,ELEMENT_SET_NO,REV_AT_EPOCH,BSTAR,MEAN_MOTION_DOT,MEAN_MOTION_DDOT
ONEWEB-0053,2020-008AC,2026-06-15T08:49:54.030144,13.10375352,.0002139,87.8833,36.6471,72.0172,288.1189,0,U,45157,999,30767,-.13107E-2,-.445E-5,0
ONEWEB-0054,2020-008AD,2026-06-15T04:10:15.526848,13.10371171,.00018789,87.8840,36.6680,83.1323,277.0018,0,U,45158,999,30776,.17040245E-2,.608E-5,0
ONEWEB-0056,2020-008AE,2026-06-15T08:59:17.519712,13.10378602,.0002004,87.8843,36.6221,89.4231,270.7126,0,U,45159,999,30794,-.40835E-3,-.13E-5,0
ONEWEB-0057,2020-008AF,2026-06-15T09:23:35.433312,13.10374408,.0002164,87.8838,36.6309,71.8157,288.3206,0,U,45160,999,30811,.16855E-2,.601E-5,0
ONEWEB-0058,2020-008AG,2026-06-15T09:04:27.250752,13.10376078,.0001584,87.8833,36.6397,82.7660,277.3647,0,U,45161,999,30818,-.8576E-4,-.17E-6,0
ONEWEB-0059,2020-008AH,2026-06-15T08:59:40.191936,13.10376302,.000169,87.8834,36.6393,76.9500,283.1816,0,U,45162,999,30808,-.61104E-3,-.201E-5,0
ONEWEB-0062,2020-008AJ,2026-06-15T09:32:45.448800,13.10373029,.0001455,87.8840,36.6218,93.5029,266.6264,0,U,45163,999,30795,.22363E-2,.793E-5,0
ONEWEB-0065,2020-008AK,2026-06-15T03:00:42.649632,13.10371387,.00021551,87.8839,36.6839,80.8335,279.3036,0,U,45164,999,30761,-.17206654E-2,-.588E-5,0
ONEWEB-0066,2020-020A,2026-06-15T13:04:00.308064,13.11415574,.0001702,87.8887,21.3981,80.9487,279.1834,0,U,45424,999,30246,-.13594E-2,-.469E-5,0
ONEWEB-0067,2020-020B,2026-06-15T12:08:44.002176,13.11424234,.0001959,87.8908,21.3275,82.0139,278.1211,0,U,45425,999,30251,.15717E-2,.57E-5,0
ONEWEB-0080,2020-020C,2026-06-15T12:08:04.823232,13.11417770,.000158,87.8899,21.4022,93.0048,267.1261,0,U,45426,999,30248,.15905E-2,.576E-5,0
ONEWEB-0090,2020-020D,2026-06-15T12:49:33.974400,13.11413882,.0001768,87.8895,21.4008,87.2505,272.8825,0,U,45427,999,30245,-.65616E-3,-.22E-5,0
ONEWEB-0061,2020-020E,2026-06-15T08:05:57.223104,13.11420030,.0001757,87.8895,21.4249,84.6841,275.4488,0,U,45428,999,30238,.422E-4,.28E-6,0
ONEWEB-0081,2020-020F,2026-06-15T13:08:53.304288,13.11415934,.0001819,87.8891,21.3935,79.0734,281.0598,0,U,45429,999,30252,-.12865E-2,-.443E-5,0
ONEWEB-0069,2020-020G,2026-06-15T13:11:31.462080,13.11415616,.0001825,87.8893,21.3959,82.6496,277.4839,0,U,45430,999,30245,-.12771E-2,-.44E-5,0
ONEWEB-0031,2020-020H,2026-06-15T12:12:45.768384,13.11417739,.000171,87.8882,21.4092,90.3157,269.8166,0,U,45431,999,30243,.16078E-2,.583E-5,0
ONEWEB-0027,2020-020J,2026-06-15T14:00:01.999008,13.17633983,.0001815,87.9140,6.1845,105.7011,220.2148,0,U,45432,999,525,-.34293E-1,-.1328E-3,0
ONEWEB-0064,2020-020K,2026-06-15T12:10:19.551072,13.11416373,.0001785,87.8888,21.4013,90.8928,269.2404,0,U,45433,999,30246,.1632E-2,.591E-5,0
ONEWEB-0018,2020-020L,2026-06-15T12:56:30.312672,13.11417738,.0001462,87.8888,21.3941,77.3907,282.7384,0,U,45434,999,30241,-.10511E-2,-.36E-5,0
ONEWEB-0083,2020-020M,2026-06-15T12:42:15.458112,13.11414840,.0001717,87.8893,21.3898,86.3359,273.7965,0,U,45435,999,30245,-.39849E-4,-.1E-7,0
ONEWEB-0095,2020-020N,2026-06-15T12:30:03.828096,13.11419927,.0002454,87.8895,21.4001,94.1248,266.0160,0,U,45436,999,30245,.87398E-3,.322E-5,0
ONEWEB-0092,2020-020P,2026-06-15T13:13:46.932096,13.11423116,.0002158,87.8893,21.3856,85.1630,274.9744,0,U,45437,999,30257,-.11848E-2,-.407E-5,0
ONEWEB-0085,2020-020Q,2026-06-15T12:41:51.357696,13.11413984,.000179,87.8887,21.3967,85.6144,274.5188,0,U,45438,999,30245,-.32991E-4,.1E-7,0
ONEWEB-0096,2020-020R,2026-06-15T12:44:29.626080,13.11421046,.0001867,87.8896,21.3922,87.9999,272.1342,0,U,45439,999,30244,-.15039E-3,-.41E-6,0
ONEWEB-0037,2020-020S,2026-06-15T08:03:50.950368,13.11914265,.0001893,87.8906,21.4047,85.9600,274.1744,0,U,45440,999,30245,-.38421E-4,-.1E-7,0
ONEWEB-0042,2020-020T,2026-06-15T12:29:39.380352,13.11415458,.0001802,87.8899,21.3905,81.8716,278.2616,0,U,45441,999,30244,.55667E-3,.21E-5,0
ONEWEB-0098,2020-020U,2026-06-15T12:23:45.199968,13.11416112,.0001745,87.8892,21.4008,86.8703,273.2625,0,U,45442,999,30242,.13872E-2,.504E-5,0
ONEWEB-0055,2020-020V,2026-06-15T11:53:03.003360,13.11418779,.0001752,87.8895,21.4038,87.3361,272.7968,0,U,45443,999,30239,.74184E-3,.276E-5,0
ONEWEB-0093,2020-020W,2026-06-15T13:13:58.175328,13.11416293,.0001941,87.8896,21.3858,73.5669,286.5672,0,U,45444,999,30246,-.13893E-2,-.48E-5,0
ONEWEB-0029,2020-020X,2026-06-15T12:03:10.926720,13.11420733,.0001738,87.8883,21.4046,77.2355,282.8968,0,U,45445,999,30243,.13225E-2,.481E-5,0
ONEWEB-0068,2020-020Y,2026-06-15T13:13:34.851648,13.11418567,.0001748,87.8900,21.3897,78.9294,281.2031,0,U,45446,999,30238,-.14362E-2,-.496E-5,0
