[
  {
    "name": "ONEWEB-0053",
    "noradId": "45157",
    "line1": "1 45157U 20008AC  26166.36798646 -.00000445  00000+0 -13107-2 0  9990",
    "line2": "2 45157  87.8833  36.6471 0002139  72.0172 288.1189 13.10375352307672"
  },
  {
    "name": "ONEWEB-0054",
    "noradId": "45158",
    "line1": "1 45158U 20008AD  26166.17379082  .00000608  00000+0  17040-2 0  9998",
    "line2": "2 45158  87.8840  36.6680 0001878  83.1323 277.0018 13.10371171307766"
  },
  {
    "name": "ONEWEB-0056",
    "noradId": "45159",
    "line1": "1 45159U 20008AE  26166.37450833 -.00000130  00000+0 -40835-3 0  9996",
    "line2": "2 45159  87.8843  36.6221 0002004  89.4231 270.7126 13.10378602307946"
  },
  {
    "name": "ONEWEB-0057",
    "noradId": "45160",
    "line1": "1 45160U 20008AF  26166.39138233  .00000601  00000+0  16855-2 0  9992",
    "line2": "2 45160  87.8838  36.6309 0002164  71.8157 288.3206 13.10374408308112"
  },
  {
    "name": "ONEWEB-0058",
    "noradId": "45161",
    "line1": "1 45161U 20008AG  26166.37809318 -.00000017  00000+0 -85760-4 0  9996",
    "line2": "2 45161  87.8833  36.6397 0001584  82.7660 277.3647 13.10376078308189"
  },
  {
    "name": "ONEWEB-0059",
    "noradId": "45162",
    "line1": "1 45162U 20008AH  26166.37477074 -.00000201  00000+0 -61104-3 0  9997",
    "line2": "2 45162  87.8834  36.6393 0001690  76.9500 283.1816 13.10376302308085"
  },
  {
    "name": "ONEWEB-0062",
    "noradId": "45163",
    "line1": "1 45163U 20008AJ  26166.39774825  .00000793  00000+0  22363-2 0  9991",
    "line2": "2 45163  87.8840  36.6218 0001455  93.5029 266.6264 13.10373029307950"
  },
  {
    "name": "ONEWEB-0065",
    "noradId": "45164",
    "line1": "1 45164U 20008AK  26166.12549363 -.00000588  00000+0 -17207-2 0  9995",
    "line2": "2 45164  87.8839  36.6839 0002155  80.8335 279.3036 13.10371387307611"
  },
  {
    "name": "ONEWEB-0066",
    "noradId": "45424",
    "line1": "1 45424U 20020A   26166.54444801 -.00000469  00000+0 -13594-2 0  9998",
    "line2": "2 45424  87.8887  21.3981 0001702  80.9487 279.1834 13.11415574302468"
  },
  {
    "name": "ONEWEB-0067",
    "noradId": "45425",
    "line1": "1 45425U 20020B   26166.50606484  .00000570  00000+0  15717-2 0  9992",
    "line2": "2 45425  87.8908  21.3275 0001959  82.0139 278.1211 13.11424234302517"
  },
  {
    "name": "ONEWEB-0080",
    "noradId": "45426",
    "line1": "1 45426U 20020C   26166.50561138  .00000576  00000+0  15905-2 0  9994",
    "line2": "2 45426  87.8899  21.4022 0001580  93.0048 267.1261 13.11417770302485"
  },
  {
    "name": "ONEWEB-0090",
    "noradId": "45427",
    "line1": "1 45427U 20020D   26166.53442100 -.00000220  00000+0 -65616-3 0  9998",
    "line2": "2 45427  87.8895  21.4008 0001768  87.2505 272.8825 13.11413882302453"
  },
  {
    "name": "ONEWEB-0061",
    "noradId": "45428",
    "line1": "1 45428U 20020E   26166.33746786  .00000028  00000+0  42200-4 0  9993",
    "line2": "2 45428  87.8895  21.4249 0001757  84.6841 275.4488 13.11420030302382"
  },
  {
    "name": "ONEWEB-0081",
    "noradId": "45429",
    "line1": "1 45429U 20020F   26166.54783917 -.00000443  00000+0 -12865-2 0  9999",
    "line2": "2 45429  87.8891  21.3935 0001819  79.0734 281.0598 13.11415934302526"
  },
  {
    "name": "ONEWEB-0069",
    "noradId": "45430",
    "line1": "1 45430U 20020G   26166.54966970 -.00000440  00000+0 -12771-2 0  9996",
    "line2": "2 45430  87.8893  21.3959 0001825  82.6496 277.4839 13.11415616302454"
  },
  {
    "name": "ONEWEB-0031",
    "noradId": "45431",
    "line1": "1 45431U 20020H   26166.50886306  .00000583  00000+0  16078-2 0  9997",
    "line2": "2 45431  87.8882  21.4092 0001710  90.3157 269.8166 13.11417739302439"
  },
  {
    "name": "ONEWEB-0027",
    "noradId": "45432",
    "line1": "1 45432U 20020J   26166.58335647 -.00013280  00000+0 -34293-1 0  9991",
    "line2": "2 45432  87.9140   6.1845 0001815 105.7011 220.2148 13.17633983  5258"
  },
  {
    "name": "ONEWEB-0064",
    "noradId": "45433",
    "line1": "1 45433U 20020K   26166.50717073  .00000591  00000+0  16320-2 0  9992",
    "line2": "2 45433  87.8888  21.4013 0001785  90.8928 269.2404 13.11416373302468"
  },
  {
    "name": "ONEWEB-0018",
    "noradId": "45434",
    "line1": "1 45434U 20020L   26166.53923973 -.00000360  00000+0 -10511-2 0  9996",
    "line2": "2 45434  87.8888  21.3941 0001462  77.3907 282.7384 13.11417738302415"
  },
  {
    "name": "ONEWEB-0083",
    "noradId": "45435",
    "line1": "1 45435U 20020M   26166.52934558 -.00000001  00000+0 -39849-4 0  9996",
    "line2": "2 45435  87.8893  21.3898 0001717  86.3359 273.7965 13.11414840302457"
  },
  {
    "name": "ONEWEB-0095",
    "noradId": "45436",
    "line1": "1 45436U 20020N   26166.52087764  .00000322  00000+0  87398-3 0  9990",
    "line2": "2 45436  87.8895  21.4001 0002454  94.1248 266.0160 13.11419927302453"
  },
  {
    "name": "ONEWEB-0092",
    "noradId": "45437",
    "line1": "1 45437U 20020P   26166.55123764 -.00000407  00000+0 -11848-2 0  9997",
    "line2": "2 45437  87.8893  21.3856 0002158  85.1630 274.9744 13.11423116302579"
  },
  {
    "name": "ONEWEB-0085",
    "noradId": "45438",
    "line1": "1 45438U 20020Q   26166.52906664  .00000001  00000+0 -32991-4 0  9996",
    "line2": "2 45438  87.8887  21.3967 0001790  85.6144 274.5188 13.11413984302459"
  },
  {
    "name": "ONEWEB-0096",
    "noradId": "45439",
    "line1": "1 45439U 20020R   26166.53089845 -.00000041  00000+0 -15039-3 0  9999",
    "line2": "2 45439  87.8896  21.3922 0001867  87.9999 272.1342 13.11421046302442"
  },
  {
    "name": "ONEWEB-0037",
    "noradId": "45440",
    "line1": "1 45440U 20020S   26166.33600637 -.00000001  00000+0 -38421-4 0  9994",
    "line2": "2 45440  87.8906  21.4047 0001893  85.9600 274.1744 13.11914265302450"
  },
  {
    "name": "ONEWEB-0042",
    "noradId": "45441",
    "line1": "1 45441U 20020T   26166.52059468  .00000210  00000+0  55667-3 0  9996",
    "line2": "2 45441  87.8899  21.3905 0001802  81.8716 278.2616 13.11415458302449"
  },
  {
    "name": "ONEWEB-0098",
    "noradId": "45442",
    "line1": "1 45442U 20020U   26166.51649537  .00000504  00000+0  13872-2 0  9995",
    "line2": "2 45442  87.8892  21.4008 0001745  86.8703 273.2625 13.11416112302426"
  },
  {
    "name": "ONEWEB-0055",
    "noradId": "45443",
    "line1": "1 45443U 20020V   26166.49517365  .00000276  00000+0  74184-3 0  9996",
    "line2": "2 45443  87.8895  21.4038 0001752  87.3361 272.7968 13.11418779302398"
  },
  {
    "name": "ONEWEB-0093",
    "noradId": "45444",
    "line1": "1 45444U 20020W   26166.55136777 -.00000480  00000+0 -13893-2 0  9996",
    "line2": "2 45444  87.8896  21.3858 0001941  73.5669 286.5672 13.11416293302469"
  },
  {
    "name": "ONEWEB-0029",
    "noradId": "45445",
    "line1": "1 45445U 20020X   26166.50220980  .00000481  00000+0  13225-2 0  9990",
    "line2": "2 45445  87.8883  21.4046 0001738  77.2355 282.8968 13.11420733302431"
  },
  {
    "name": "ONEWEB-0068",
    "noradId": "45446",
    "line1": "1 45446U 20020Y   26166.55109782 -.00000496  00000+0 -14362-2 0  9993",
    "line2": "2 45446  87.8900  21.3897 0001748  78.9294 281.2031 13.11418567302386"
  }
]